IRIDIUM 921 [-]         
1 24873U 97034E   23290.58044777  .00022872  00000+0  87396-3 0  9991
2 24873  86.3894  47.2934 0006801  96.3026 263.8995 15.26479844437886
IRIDIUM 26 [-]          
1 24903U 97043A   23290.47755770  .00000761  00000+0  25521-3 0  9990
2 24903  86.4017   6.0069 0002010  88.8281 271.3146 14.36044300369350
IRIDIUM 22 [-]          
1 24907U 97043E   23290.48564041  .00000740  00000+0  25334-3 0  9993
2 24907  86.4023   9.0450 0002201  92.2309 267.9139 14.34951695369456
DUMMY MASS 1 [-]        
1 24925U 97048A   23290.36643962  .00001031  00000+0  11519-3 0  9999
2 24925  86.3351  56.5882 0008468 130.4728 229.7236 14.85878651414693
DUMMY MASS 2 [-]        
1 24926U 97048B   23290.43102568  .00001026  00000+0  11522-3 0  9998
2 24926  86.3349  58.0593 0008957 140.3218 219.8663 14.85639716414493
IRIDIUM 29 [-]          
1 24944U 97051A   23290.35657163  .00000663  00000+0  22440-3 0  9996
2 24944  86.3996  39.0670 0002349  91.7013 268.4452 14.35408648365907
IRIDIUM 33 [-]          
1 24946U 97051C   23290.58083212  .00000674  00000+0  23399-3 0  9997
2 24946  86.3913  38.2488 0005821 261.3919  98.6618 14.34147271365496
